INTELSAT 902 (IS-902)   
1 26900U 01039A   26181.50527403 -.00000277  00000+0  00000+0 0  9999
2 26900   6.1497  71.6208 0004210  28.0626 310.6671  1.00270084 90826
INTELSAT 904 (IS-904)   
1 27380U 02007A   26181.50882737 -.00000220  00000+0  00000+0 0  9990
2 27380   6.9515  69.0258 0006411  14.1461 347.1033  1.00272128 51906
DIRECTV 5 (TEMPO 1)     
1 27426U 02023A   26181.60080549 -.00000050  00000+0  00000+0 0  9992
2 27426   4.9103  75.1476 0003563  31.1904 278.5134  1.00271766 88258
INTELSAT 905 (IS-905)   
1 27438U 02027A   26181.52103184  .00000099  00000+0  00000+0 0  9993
2 27438   6.7852  69.6412 0004130  31.7229 227.5952  1.00273362 51499
GALAXY 3C (G-3C)        
1 27445U 02030A   26181.59529704 -.00000145  00000+0  00000+0 0  9995
2 27445   3.7656  77.8074 0001970  27.2183 293.1133  1.00272227 46627
INTELSAT 906 (IS-906)   
1 27513U 02041A   26181.17146193  .00000019  00000+0  00000+0 0  9993
2 27513   5.8347  72.7618 0004132  10.6635 320.6910  1.00272838 87152
GALAXY 13 (HORIZONS-1)  
1 27954U 03044A   26181.61962932  .00000142  00000+0  00000+0 0  9999
2 27954   1.4532  83.6941 0001685  10.1376 257.8913  1.00271389 46706
INTELSAT 10-02          
1 28358U 04022A   26181.37244097 -.00000001  00000+0  00000+0 0  9998
2 28358   0.0351 275.6747 0000206 207.3639 288.4805  1.00270426 80682
DIRECTV 8               
1 28659U 05019A   26181.60496459  .00000012  00000+0  00000+0 0  9997
2 28659   0.0176 337.8440 0003356 127.6381 271.9265  1.00272164 77201
GALAXY 28 (G-28)        
1 28702U 05022A   26181.22465931 -.00000192  00000+0  00000+0 0  9999
2 28702   3.3310  78.7807 0002549  13.9019 239.3897  1.00271226 52101
GALAXY 16 (G-16)        
1 29236U 06023A   26181.59677560 -.00000116  00000+0  00000+0 0  9993
2 29236   0.0088  67.2795 0002759  26.4720 300.7511  1.00273181 73101
DIRECTV 9S              
1 29494U 06043A   26181.59810104 -.00000105  00000+0  00000+0 0  9992
2 29494   2.4537  80.7520 0005435  21.9726 290.0559  1.00271808 51516
GALAXY 17 (G-17)        
1 31307U 07016B   26180.64290567 -.00000198  00000+0  00000+0 0  9991
2 31307   3.0020  79.7513 0004291  19.8756 324.5360  1.00275661 69922
INTELSAT 11 (IS-11)     
1 32253U 07044B   26181.17232861  .00000084  00000+0  00000+0 0  9998
2 32253   3.5976  78.5195 0003295  86.2589 244.1933  0.99047702 68579
HORIZONS-2              
1 32388U 07063B   26181.50059400 -.00000245  00000+0  00000+0 0  9991
2 32388   2.6347  80.4718 0004128  10.4409 294.0530  1.00270096 67943
DIRECTV 11              
1 32729U 08013A   26181.59747535 -.00000115  00000+0  00000+0 0  9994
2 32729   0.0118 261.6721 0000347 164.8959 328.0030  1.00269308 45729
GALAXY 18 (G-18)        
1 32951U 08024A   26181.60653131  .00000036  00000+0  00000+0 0  9994
2 32951   0.0183  30.7913 0003217  72.1389 271.0904  1.00271794 45980
GALAXY 19 (G-19)        
1 33376U 08045A   26181.59607656 -.00000128  00000+0  00000+0 0  9991
2 33376   0.0540 254.5050 0002934 218.1118 283.6294  1.00271890 65030
FM-5                    
1 35493U 09034A   26181.14171064 -.00000189  00000+0  00000+0 0  9999
2 35493   0.0344 280.3187 0001040  70.2395 252.5130  1.00272155 46772
INTELSAT 14 (IS-14)     
1 36097U 09064A   26181.43502138 -.00000263  00000+0  00000+0 0  9998
2 36097   0.0277 288.5662 0002752 173.0232 288.5225  1.00270513 60731
INTELSAT 15 (IS-15)     
1 36106U 09067A   26181.46081032 -.00000174  00000+0  00000+0 0  9991
2 36106   0.0143 313.7041 0002680 149.3627  66.4869  1.00268948 41364
DIRECTV 12              
1 36131U 09075A   26181.59817875 -.00000093  00000+0  00000+0 0  9994
2 36131   0.0173 192.7565 0000490 284.2288 274.3004  1.00273225 46685
INTELSAT 16 (IS-16)     
1 36397U 10006A   26181.50016066 -.00000234  00000+0  00000+0 0  9995
2 36397   0.0119  19.5060 0002577  97.5840 265.3325  1.00270772 59787
XM-5                    
1 37185U 10053A   26181.10392142 -.00000012  00000+0  00000+0 0  9995
2 37185   0.0699 268.8148 0002500 286.8802   4.7004  1.00272097 57610
INTELSAT 17 (IS-17)     
1 37238U 10065B   26181.52827057  .00000010  00000+0  00000+0 0  9998
2 37238   0.0101 223.3782 0002522 238.8228  72.5568  1.00270425 53381
INTELSAT 28 (IS-28)     
1 37392U 11016A   26181.50891404 -.00000216  00000+0  00000+0 0  9990
2 37392   1.8391  82.4700 0004029  16.4500 331.1236  1.00270581 53416
INTELSAT 18 (IS-18)     
1 37834U 11056A   26181.43794980  .00000000  00000+0  00000+0 0  9998
2 37834   0.0227  20.4102 0002106  85.0769 150.6841  1.00269493 53941
INTELSAT 22 (IS-22)     
1 38098U 12011A   26181.45821031  .00000000  00000+0  00000+0 0  9993
2 38098   0.0471  65.2949 0001836  71.7532  18.5473  1.00270814  7323
INTELSAT 19 (IS-19)     
1 38356U 12030A   26181.54834953 -.00000046  00000+0  00000+0 0  9999
2 38356   0.0125  37.4820 0003427  72.2637 172.2754  1.00271485 50586
INTELSAT 20 (IS-20)     
1 38740U 12043A   26180.85461583  .00000000  00000+0  00000+0 0  9997
2 38740   0.0426  75.1743 0002414 110.3586 108.5482  1.00268120 50876
INTELSAT 21 (IS-21)     
1 38749U 12045A   26181.28985742 -.00000274  00000+0  00000+0 0  9998
2 38749   0.0335 277.7600 0001399 205.2976 201.6354  1.00262958 50656
